GLOBALSTAR M079 [+]     
1 37188U 10054A   18339.06725832 -.00000075  00000-0  16142-3 0  9994
2 37188  52.0019 203.5408 0001383  72.9256  87.4071 12.62264789375799
GLOBALSTAR M074 [+]     
1 37189U 10054B   18338.67036104 -.00000081  00000-0  12513-3 0  9993
2 37189  51.9996 204.4426 0001563  68.6734 327.6821 12.62263591375719
GLOBALSTAR M076 [+]     
1 37190U 10054C   18338.87167822 -.00000068  00000-0  20000-3 0  9994
2 37190  52.0011 203.7783 0001638  78.3507  33.3633 12.62268437375545
GLOBALSTAR M077 [+]     
1 37191U 10054D   18338.94658729 -.00000075  00000-0  15914-3 0  9990
2 37191  52.0045 159.7269 0001484  93.4552  59.0777 12.62262743376065
GLOBALSTAR M075 [+]     
1 37192U 10054E   18339.21201046 -.00000092  00000-0  68479-4 0  9992
2 37192  51.9945 246.3204 0001353  68.8712  89.9680 12.62262271375053
GLOBALSTAR M073 [+]     
1 37193U 10054F   18338.97584009 -.00000108  00000-0 -24847-4 0  9998
2 37193  52.0041 159.0543 0001228  98.7581  66.8626 12.62265982376536
GLOBALSTAR M083 [+]     
1 37739U 11033A   18338.82862466 -.00000116  00000-0 -67681-4 0  9994
2 37739  51.9850 111.4901 0000709  93.8561  62.4589 12.62264589345847
GLOBALSTAR M088 [+]     
1 37740U 11033B   18338.85786769 -.00000091  00000-0  73584-4 0  9990
2 37740  51.9751  18.9082 0000412  65.2083 343.4907 12.62268631341252
GLOBALSTAR M091 [+]     
1 37741U 11033C   18338.48736399 -.00000088  00000-0  90656-4 0  9999
2 37741  52.0009 339.3133 0000446  39.2163  65.6189 12.62268485342034
GLOBALSTAR M085 [+]     
1 37742U 11033D   18338.94075508 -.00000109  00000-0 -27778-4 0  9999
2 37742  51.9873 291.0793 0000729  35.7027  31.0099 12.62261426342677
GLOBALSTAR M081 [+]     
1 37743U 11033E   18338.96214274 -.00000101  00000-0  17173-4 0  9996
2 37743  51.9968 292.3302 0001035  42.7604   0.4960 12.62266385342703
GLOBALSTAR M089 [+]     
1 37744U 11033F   18338.85063826 -.00000095  00000-0  47685-4 0  9993
2 37744  51.9928 247.3460 0000898  78.4055 357.7929 12.62265337343437
GLOBALSTAR M084 [+]     
1 38040U 11080A   18338.88443241 -.00000119  00000-0 -87740-4 0  9995
2 38040  51.9999 113.2803 0001206 122.0784  47.6544 12.62263844321587
GLOBALSTAR M080 [+]     
1 38041U 11080B   18338.85617389 -.00000114  00000-0 -56529-4 0  9995
2 38041  52.0051 114.1337 0001314 120.0686  41.5600 12.62267792321560
GLOBALSTAR M082 [+]     
1 38042U 11080C   18338.70980200 -.00000113  00000-0 -49455-4 0  9994
2 38042  52.0087  69.7778 0000422  96.6013  58.8850 12.62256157322220
GLOBALSTAR M092 [+]     
1 38043U 11080D   18338.91878058 -.00000084  00000-0  11295-3 0  9991
2 38043  52.0058 159.3735 0001018 109.7403  36.8709 12.62264472320764
GLOBALSTAR M090 [+]     
1 38044U 11080E   18338.73808155 -.00000112  00000-0 -45427-4 0  9991
2 38044  51.9899  66.5743 0000561 115.8275  49.6713 12.62268385322239
GLOBALSTAR M086 [+]     
1 38045U 11080F   18338.50566025 -.00000114  00000-0 -54269-4 0  9990
2 38045  51.9912  67.6485 0001910 100.9942 327.7606 12.62264608322253
GLOBALSTAR M097 [+]     
1 39072U 13005A   18339.15073734 -.00000093  00000-0  59082-4 0  9995
2 39072  52.0058 337.7932 0000739  52.9009 307.1925 12.62266837269569
GLOBALSTAR M093 [+]     
1 39073U 13005B   18338.49057814 -.00000088  00000-0  90498-4 0  9993
2 39073  51.9821 336.9319 0000804  28.9492 331.1419 12.62263137269473
GLOBALSTAR M094 [+]     
1 39074U 13005C   18338.88668876 -.00000096  00000-0  45727-4 0  9997
2 39074  51.9956 247.7211 0001234  59.5927 300.5062 12.62268793271014
GLOBALSTAR M096 [+]     
1 39075U 13005D   18338.82064729 -.00000105  00000-0 -72338-5 0  9990
2 39075  52.0080 294.5695 0000886  42.4216 317.6719 12.62263728270251
GLOBALSTAR M078 [+]     
1 39076U 13005E   18339.16616412 -.00000052  00000-0  28979-3 0  9991
2 39076  51.9893  21.0998 0001723 308.9305  51.1407 12.62043722268803
GLOBALSTAR M095 [+]     
1 39077U 13005F   18338.58308904 -.00000090  00000-0  77680-4 0  9997
2 39077  51.9817  21.4399 0000383 335.5462  24.5386 12.62260967268712
